{"fetched_at":"2026-07-21T07:07:22.763Z","source":"https://celestrak.org/NORAD/elements/gp.php?NAME=YAM&FORMAT=JSON","constellation":"earthdaily-constellation","records":[{"OBJECT_NAME":"YAM-10","OBJECT_ID":"2025-135BE","EPOCH":"2026-07-20T21:10:26.984928","CLASSIFICATION_TYPE":"U","MEAN_MOTION":14.91913075,"ECCENTRICITY":0.00020968,"INCLINATION":97.7755,"RA_OF_ASC_NODE":315.2726,"ARG_OF_PERICENTER":217.1212,"MEAN_ANOMALY":142.9862,"EPHEMERIS_TYPE":0,"NORAD_CAT_ID":64580,"ELEMENT_SET_NO":999,"REV_AT_EPOCH":5888,"BSTAR":0.00010889465,"MEAN_MOTION_DOT":0.00001045,"MEAN_MOTION_DDOT":0},{"OBJECT_NAME":"YAM-11","OBJECT_ID":"2026-100M","EPOCH":"2026-07-20T06:48:10.492128","CLASSIFICATION_TYPE":"U","MEAN_MOTION":14.90608756,"ECCENTRICITY":0.000928,"INCLINATION":97.7798,"RA_OF_ASC_NODE":97.9703,"ARG_OF_PERICENTER":344.6318,"MEAN_ANOMALY":15.4617,"EPHEMERIS_TYPE":0,"NORAD_CAT_ID":68991,"ELEMENT_SET_NO":999,"REV_AT_EPOCH":1162,"BSTAR":0.000076877,"MEAN_MOTION_DOT":0.00000697,"MEAN_MOTION_DDOT":0},{"OBJECT_NAME":"YAM-16","OBJECT_ID":"2026-100N","EPOCH":"2026-07-20T23:08:10.346496","CLASSIFICATION_TYPE":"U","MEAN_MOTION":14.91525486,"ECCENTRICITY":0.00045047,"INCLINATION":97.7329,"RA_OF_ASC_NODE":98.7538,"ARG_OF_PERICENTER":49.1505,"MEAN_ANOMALY":311.0104,"EPHEMERIS_TYPE":0,"NORAD_CAT_ID":68992,"ELEMENT_SET_NO":999,"REV_AT_EPOCH":1173,"BSTAR":0.000082321487,"MEAN_MOTION_DOT":0.00000769,"MEAN_MOTION_DDOT":0},{"OBJECT_NAME":"YAM-13","OBJECT_ID":"2026-100P","EPOCH":"2026-07-20T23:28:14.464416","CLASSIFICATION_TYPE":"U","MEAN_MOTION":14.90421055,"ECCENTRICITY":0.00090997,"INCLINATION":97.7858,"RA_OF_ASC_NODE":98.7544,"ARG_OF_PERICENTER":339.604,"MEAN_ANOMALY":20.4813,"EPHEMERIS_TYPE":0,"NORAD_CAT_ID":68993,"ELEMENT_SET_NO":999,"REV_AT_EPOCH":1173,"BSTAR":0.000095574222,"MEAN_MOTION_DOT":0.00000876,"MEAN_MOTION_DDOT":0},{"OBJECT_NAME":"YAM-15","OBJECT_ID":"2026-100T","EPOCH":"2026-07-20T23:07:28.831296","CLASSIFICATION_TYPE":"U","MEAN_MOTION":14.90658249,"ECCENTRICITY":0.0008958,"INCLINATION":97.7856,"RA_OF_ASC_NODE":98.7662,"ARG_OF_PERICENTER":354.5465,"MEAN_ANOMALY":5.5654,"EPHEMERIS_TYPE":0,"NORAD_CAT_ID":68997,"ELEMENT_SET_NO":999,"REV_AT_EPOCH":1173,"BSTAR":0.000081048177,"MEAN_MOTION_DOT":0.00000739,"MEAN_MOTION_DDOT":0},{"OBJECT_NAME":"YAM-12","OBJECT_ID":"2026-100Z","EPOCH":"2026-07-20T06:24:37.931616","CLASSIFICATION_TYPE":"U","MEAN_MOTION":14.90464032,"ECCENTRICITY":0.00097182,"INCLINATION":97.7786,"RA_OF_ASC_NODE":97.9672,"ARG_OF_PERICENTER":331.4197,"MEAN_ANOMALY":28.6487,"EPHEMERIS_TYPE":0,"NORAD_CAT_ID":69003,"ELEMENT_SET_NO":999,"REV_AT_EPOCH":1161,"BSTAR":0.0002719658,"MEAN_MOTION_DOT":0.00002599,"MEAN_MOTION_DDOT":0},{"OBJECT_NAME":"YAM-14","OBJECT_ID":"2026-100AE","EPOCH":"2026-07-20T17:31:43.028832","CLASSIFICATION_TYPE":"U","MEAN_MOTION":14.90362272,"ECCENTRICITY":0.00056894,"INCLINATION":97.7842,"RA_OF_ASC_NODE":98.4445,"ARG_OF_PERICENTER":21.6057,"MEAN_ANOMALY":338.54,"EPHEMERIS_TYPE":0,"NORAD_CAT_ID":69008,"ELEMENT_SET_NO":999,"REV_AT_EPOCH":1168,"BSTAR":0.00010458056,"MEAN_MOTION_DOT":0.00000962,"MEAN_MOTION_DDOT":0}]}
